MALLIGYONG-1            
1 58400U 23179A   24238.62736076  .00009542  00000+0  41729-3 0  9990
2 58400  97.3922 124.3051 0001001  41.9756 318.1556 15.22280368 42283
